{
  "type": "FeatureCollection",
  "features": [
    {
      "type": "Feature",
      "properties": {
        "norad_id": 15362,
        "name": "NOVA 3",
        "group": "nnss",
        "lat": 56.09601602932303,
        "lon": -99.38058994712195,
        "alt_km": 1182.477382580033,
        "timestamp": "2025-12-04T10:51:50.374052+00:00",
        "meta_object_name": "NOVA 3",
        "meta_object_id": "1984-110A",
        "meta_epoch": "2025-12-04T02:02:19.787136",
        "meta_mean_motion": 13.23042938,
        "meta_eccentricity": 0.0031203,
        "meta_inclination": 90.1225,
        "meta_ra_of_asc_node": 80.4327,
        "meta_arg_of_pericenter": 356.2569,
        "meta_mean_anomaly": 176.9125,
        "meta_ephemeris_type": 0,
        "meta_classification_type": "U",
        "meta_norad_cat_id": 15362,
        "meta_element_set_no": 999,
        "meta_rev_at_epoch": 98584,
        "meta_bstar": 0.00012082,
        "meta_mean_motion_dot": 5.9e-07,
        "meta_mean_motion_ddot": 0,
        "tle_line1": "1 15362U 84110A   25338.08495124  .00000059  00000+0  12082-3 0  9994",
        "tle_line2": "2 15362  90.1225  80.4327 0031203 356.2569 176.9125 13.23042938985847"
      },
      "geometry": {
        "type": "Point",
        "coordinates": [
          -99.38058994712195,
          56.09601602932303
        ]
      }
    },
    {
      "type": "Feature",
      "properties": {
        "norad_id": 15935,
        "name": "OSCAR 30",
        "group": "nnss",
        "lat": 2.013389263627172,
        "lon": -80.28263543172277,
        "alt_km": 1083.0143951956497,
        "timestamp": "2025-12-04T10:51:50.374062+00:00",
        "meta_object_name": "OSCAR 30",
        "meta_object_id": "1985-066A",
        "meta_epoch": "2025-12-03T22:00:57.818304",
        "meta_mean_motion": 13.36076089,
        "meta_eccentricity": 0.01693469,
        "meta_inclination": 90.1646,
        "meta_ra_of_asc_node": 99.7029,
        "meta_arg_of_pericenter": 108.5282,
        "meta_mean_anomaly": 14.1575,
        "meta_ephemeris_type": 0,
        "meta_classification_type": "U",
        "meta_norad_cat_id": 15935,
        "meta_element_set_no": 999,
        "meta_rev_at_epoch": 96335,
        "meta_bstar": 0.00023899718,
        "meta_mean_motion_dot": 1.43e-06,
        "meta_mean_motion_ddot": 0,
        "tle_line1": "1 15935U 85066A   25337.91733586  .00000143  00000+0  23900-3 0  9994",
        "tle_line2": "2 15935  90.1646  99.7029 0169346 108.5282  14.1575 13.36076089963354"
      },
      "geometry": {
        "type": "Point",
        "coordinates": [
          -80.28263543172277,
          2.013389263627172
        ]
      }
    },
    {
      "type": "Feature",
      "properties": {
        "norad_id": 15936,
        "name": "OSCAR 24",
        "group": "nnss",
        "lat": -76.83450623213545,
        "lon": -88.60569649633263,
        "alt_km": 1233.7038426957115,
        "timestamp": "2025-12-04T10:51:50.374073+00:00",
        "meta_object_name": "OSCAR 24",
        "meta_object_id": "1985-066B",
        "meta_epoch": "2025-12-03T19:48:06.613056",
        "meta_mean_motion": 13.35933575,
        "meta_eccentricity": 0.01703838,
        "meta_inclination": 90.1787,
        "meta_ra_of_asc_node": 92.1477,
        "meta_arg_of_pericenter": 115.2258,
        "meta_mean_anomaly": 3.8692,
        "meta_ephemeris_type": 0,
        "meta_classification_type": "U",
        "meta_norad_cat_id": 15936,
        "meta_element_set_no": 999,
        "meta_rev_at_epoch": 96524,
        "meta_bstar": 0.00014632153,
        "meta_mean_motion_dot": 9.2e-07,
        "meta_mean_motion_ddot": 0,
        "tle_line1": "1 15936U 85066B   25337.82507654  .00000092  00000+0  14632-3 0  9995",
        "tle_line2": "2 15936  90.1787  92.1477 0170383 115.2258   3.8692 13.35933575965242"
      },
      "geometry": {
        "type": "Point",
        "coordinates": [
          -88.60569649633263,
          -76.83450623213545
        ]
      }
    },
    {
      "type": "Feature",
      "properties": {
        "norad_id": 17070,
        "name": "POLAR BEAR",
        "group": "nnss",
        "lat": -0.0032154998020510884,
        "lon": -175.8949856680867,
        "alt_km": 1007.5285161776328,
        "timestamp": "2025-12-04T10:51:50.374083+00:00",
        "meta_object_name": "POLAR BEAR",
        "meta_object_id": "1986-088A",
        "meta_epoch": "2025-12-04T02:42:26.523072",
        "meta_mean_motion": 13.75248152,
        "meta_eccentricity": 0.0040353,
        "meta_inclination": 89.618,
        "meta_ra_of_asc_node": 184.1187,
        "meta_arg_of_pericenter": 144.367,
        "meta_mean_anomaly": 334.4415,
        "meta_ephemeris_type": 0,
        "meta_classification_type": "U",
        "meta_norad_cat_id": 17070,
        "meta_element_set_no": 999,
        "meta_rev_at_epoch": 95860,
        "meta_bstar": 0.00017027,
        "meta_mean_motion_dot": 1.76e-06,
        "meta_mean_motion_ddot": 0,
        "tle_line1": "1 17070U 86088A   25338.11280698  .00000176  00000+0  17027-3 0  9994",
        "tle_line2": "2 17070  89.6180 184.1187 0040353 144.3670 334.4415 13.75248152958609"
      },
      "geometry": {
        "type": "Point",
        "coordinates": [
          -175.8949856680867,
          -0.0032154998020510884
        ]
      }
    },
    {
      "type": "Feature",
      "properties": {
        "norad_id": 18361,
        "name": "OSCAR 27",
        "group": "nnss",
        "lat": 81.53872185233745,
        "lon": 76.44440185972732,
        "alt_km": 1158.0149621237915,
        "timestamp": "2025-12-04T10:51:50.374093+00:00",
        "meta_object_name": "OSCAR 27",
        "meta_object_id": "1987-080A",
        "meta_epoch": "2025-12-03T20:10:06.962304",
        "meta_mean_motion": 13.44903756,
        "meta_eccentricity": 0.0102392,
        "meta_inclination": 90.3742,
        "meta_ra_of_asc_node": 78.9393,
        "meta_arg_of_pericenter": 249.6441,
        "meta_mean_anomaly": 109.3683,
        "meta_ephemeris_type": 0,
        "meta_classification_type": "U",
        "meta_norad_cat_id": 18361,
        "meta_element_set_no": 999,
        "meta_rev_at_epoch": 87437,
        "meta_bstar": 0.00023784,
        "meta_mean_motion_dot": 1.51e-06,
        "meta_mean_motion_ddot": 0,
        "tle_line1": "1 18361U 87080A   25337.84035836  .00000151  00000+0  23784-3 0  9992",
        "tle_line2": "2 18361  90.3742  78.9393 0102392 249.6441 109.3683 13.44903756874373"
      },
      "geometry": {
        "type": "Point",
        "coordinates": [
          76.44440185972732,
          81.53872185233745
        ]
      }
    },
    {
      "type": "Feature",
      "properties": {
        "norad_id": 18362,
        "name": "OSCAR 29",
        "group": "nnss",
        "lat": 72.61035884107433,
        "lon": -99.37937906156762,
        "alt_km": 1160.2985280275634,
        "timestamp": "2025-12-04T10:51:50.374103+00:00",
        "meta_object_name": "OSCAR 29",
        "meta_object_id": "1987-080B",
        "meta_epoch": "2025-12-03T20:39:17.885088",
        "meta_mean_motion": 13.44445825,
        "meta_eccentricity": 0.01037,
        "meta_inclination": 90.3756,
        "meta_ra_of_asc_node": 79.3983,
        "meta_arg_of_pericenter": 273.0095,
        "meta_mean_anomaly": 210.8813,
        "meta_ephemeris_type": 0,
        "meta_classification_type": "U",
        "meta_norad_cat_id": 18362,
        "meta_element_set_no": 999,
        "meta_rev_at_epoch": 87390,
        "meta_bstar": 0.00020369,
        "meta_mean_motion_dot": 1.3e-06,
        "meta_mean_motion_ddot": 0,
        "tle_line1": "1 18362U 87080B   25337.86062367  .00000130  00000+0  20369-3 0  9997",
        "tle_line2": "2 18362  90.3756  79.3983 0103700 273.0095 210.8813 13.44445825873908"
      },
      "geometry": {
        "type": "Point",
        "coordinates": [
          -99.37937906156762,
          72.61035884107433
        ]
      }
    },
    {
      "type": "Feature",
      "properties": {
        "norad_id": 19070,
        "name": "OSCAR 23",
        "group": "nnss",
        "lat": 19.465789563679966,
        "lon": 16.02167711525125,
        "alt_km": 1297.2337951165418,
        "timestamp": "2025-12-04T10:51:50.374113+00:00",
        "meta_object_name": "OSCAR 23",
        "meta_object_id": "1988-033A",
        "meta_epoch": "2025-12-04T03:51:34.326144",
        "meta_mean_motion": 13.27785161,
        "meta_eccentricity": 0.0188814,
        "meta_inclination": 90.3222,
        "meta_ra_of_asc_node": 16.1265,
        "meta_arg_of_pericenter": 203.814,
        "meta_mean_anomaly": 221.3732,
        "meta_ephemeris_type": 0,
        "meta_classification_type": "U",
        "meta_norad_cat_id": 19070,
        "meta_element_set_no": 999,
        "meta_rev_at_epoch": 82139,
        "meta_bstar": 0.00022567,
        "meta_mean_motion_dot": 1.2e-06,
        "meta_mean_motion_ddot": 0,
        "tle_line1": "1 19070U 88033A   25338.16081396  .00000120  00000+0  22567-3 0  9991",
        "tle_line2": "2 19070  90.3222  16.1265 0188814 203.8140 221.3732 13.27785161821390"
      },
      "geometry": {
        "type": "Point",
        "coordinates": [
          16.02167711525125,
          19.465789563679966
        ]
      }
    }
  ]
}